NORAD_CAT_ID,OBJECT_NAME,OBJECT_TYPE,EPOCH,MEAN_MOTION,ECCENTRICITY,INCLINATION,RA_OF_ASC_NODE,ARG_OF_PERICENTER,MEAN_ANOMALY,BSTAR,MEAN_MOTION_DOT,MEAN_MOTION_DDOT,TLE_LINE0,TLE_LINE1,TLE_LINE2,SEMIMAJOR_AXIS,PERIOD,APOGEE,PERIGEE,DECAYED
52843.0,STARLINK-4188,PAYLOAD,2022-08-08 14:00:01,15.27134177,0.0001326,53.2176,151.3312,63.9535,216.8845,-0.045613,-0.01121773,0.0,0 STARLINK-4188,1 52843U 22062P   22220.58335648 -.01121773  00000-0 -45613-1 0  9998,2 52843  53.2176 151.3312 0001326  63.9535 216.8845 15.27134177  8647,6862.521,94.294,485.296,483.476,0.0
52843.0,STARLINK-4188,PAYLOAD,2022-08-08 22:00:00,15.26331551,0.0001467,53.2176,149.7969,49.7837,264.0749,-0.046744,-0.01121805,0.0,0 STARLINK-4188,1 52843U 22062P   22220.91667824 -.01121805  00000-0 -46744-1 0  9991,2 52843  53.2176 149.7969 0001467  49.7837 264.0749 15.26331551  1307,6864.927,94.344,487.799,485.785,0.0
52843.0,STARLINK-4188,PAYLOAD,2022-08-09 06:00:00,15.25526909,0.0001345,53.2175,148.2655,52.9946,292.9837,-0.047748,-0.01118521,0.0,0 STARLINK-4188,1 52843U 22062P   22221.25001157 -.01118521  00000-0 -47748-1 0  9996,2 52843  53.2175 148.2655 0001345  52.9946 292.9837 15.25526909  8749,6867.340999999999,94.394,490.129,488.282,0.0
52843.0,STARLINK-4188,PAYLOAD,2022-08-09 14:00:01,15.24724712,0.0001346,53.2175,146.7327,50.3413,326.7934,-0.0490209999999999,-0.01120637,0.0,0 STARLINK-4188,1 52843U 22062P   22221.58334491 -.01120637  00000-0 -49021-1 0  9999,2 52843  53.2175 146.7327 0001346  50.3413 326.7934 15.24724712  1300,6869.749,94.443,492.539,490.69,0.0
52843.0,STARLINK-4188,PAYLOAD,2022-08-09 22:00:00,15.23923432,0.0001598,53.2177,145.2043,41.9075,5.4164,-0.050325,-0.01137742,0.0,0 STARLINK-4188,1 52843U 22062P   22221.91667824 -.01137742  00000-0 -50325-1 0  9999,2 52843  53.2177 145.2043 0001598  41.9075   5.4164 15.23923432  1305,6872.156999999997,94.493,495.12,492.924,0.0
52843.0,STARLINK-4188,PAYLOAD,2022-08-10 06:00:00,15.23117147,0.0001464,53.2174,143.6782,50.6366,25.9133,-0.051251,-0.01131546,0.0,0 STARLINK-4188,1 52843U 22062P   22222.25001157 -.01131546  00000-0 -51251-1 0  9993,2 52843  53.2174 143.6782 0001464  50.6366  25.9133 15.23117147  8898,6874.581999999999,94.543,497.454,495.441,0.0
52843.0,STARLINK-4188,PAYLOAD,2022-08-10 14:00:01,15.22314968,0.0001591,53.2175,142.1511,45.7272,59.0844,-0.052582,-0.01133419,0.0,0 STARLINK-4188,1 52843U 22062P   22222.58334491 -.01133419  00000-0 -52582-1 0  9998,2 52843  53.2175 142.1511 0001591  45.7272  59.0844 15.22314968  1300,6876.996999999999,94.593,499.956,497.768,0.0
52843.0,STARLINK-4188,PAYLOAD,2022-08-10 20:00:01,15.21713496,0.0001571999999999,53.2176,141.0082,43.7346,351.639,-0.053562,-0.01134085,0.0,0 STARLINK-4188,1 52843U 22062P   22222.83334491 -.01134085  00000-0 -53562-1 0  9995,2 52843  53.2176 141.0082 0001572  43.7346 351.6390 15.21713496  8987,6878.809,94.63,501.755,499.593,0.0
52843.0,STARLINK-4188,PAYLOAD,2022-08-10 22:00:00,15.21513261,0.0001739,53.2176,140.6284,44.6824,87.4242,-0.053939,-0.01135264,0.0,0 STARLINK-4188,1 52843U 22062P   22222.91667824 -.01135264  00000-0 -53939-1 0  9991,2 52843  53.2176 140.6284 0001739  44.6824  87.4242 15.21513261  1309,6879.4119999999975,94.643,502.474,500.081,0.0
52843.0,STARLINK-4188,PAYLOAD,2022-08-11 14:00:01,15.19905686,0.000169,53.2174,137.5864,47.8077,135.9973,-0.0563669999999999,-0.01131838,0.0,0 STARLINK-4188,1 52843U 22062P   22223.58334491 -.01131838  00000-0 -56367-1 0  9997,2 52843  53.2174 137.5864 0001690  47.8077 135.9973 15.19905686  1300,6884.262,94.743,507.291,504.964,0.0
52843.0,STARLINK-4188,PAYLOAD,2022-08-11 22:00:00,15.19103044,0.0001803,53.2177,136.0695,45.1818,163.0239,-0.05772,-0.01132145,0.0,0 STARLINK-4188,1 52843U 22062P   22223.91667824 -.01132145  00000-0 -57720-1 0  9999,2 52843  53.2177 136.0695 0001803  45.1818 163.0239 15.19103044  9155,6886.687,94.793,509.794,507.31,0.0
52843.0,STARLINK-4188,PAYLOAD,2022-08-12 14:00:01,15.17496291,0.0001505,53.2175,133.0386,55.4452,198.6698,-0.060373,-0.01130332,0.0,0 STARLINK-4188,1 52843U 22062P   22224.58334491 -.01130332  00000-0 -60373-1 0  9998,2 52843  53.2175 133.0386 0001505  55.4452 198.6698 15.17496291  1303,6891.547,94.893,514.45,512.375,0.0
52843.0,STARLINK-4188,PAYLOAD,2022-08-12 20:00:01,15.16895141,0.0001672,53.2177,131.9048,53.2811,127.1172,-0.061536,-0.01132191,0.0,0 STARLINK-4188,1 52843U 22062P   22224.83335648 -.01132191  00000-0 -61536-1 0  9998,2 52843  53.2177 131.9048 0001672  53.2811 127.1172 15.16895141  9293,6893.368,94.931,516.386,514.08,0.0
52843.0,STARLINK-4188,PAYLOAD,2022-08-12 22:00:01,15.16694136,0.0001536,53.2176,131.5275,54.4278,221.2563,-0.0618419999999999,-0.01131306,0.0,0 STARLINK-4188,1 52843U 22062P   22224.91668981 -.01131306  00000-0 -61842-1 0  9993,2 52843  53.2176 131.5275 0001536  54.4278 221.2563 15.16694136  1304,6893.977,94.943,516.901,514.783,0.0
52843.0,STARLINK-4188,PAYLOAD,2022-08-13 14:00:01,15.15086749,0.0001557,53.2174,128.5077,43.9303,271.8115,-0.064606,-0.01128926,0.0,0 STARLINK-4188,1 52843U 22062P   22225.58334491 -.01128926  00000-0 -64606-1 0  9998,2 52843  53.2174 128.5077 0001557  43.9303 271.8115 15.15086749  1301,6898.852,95.044,521.7909999999998,519.643,0.0
52843.0,STARLINK-4188,PAYLOAD,2022-08-13 22:00:00,15.14285977,0.0001641,53.2175,127.0023,42.181,292.1716,-0.066282,-0.01131912,0.0,0 STARLINK-4188,1 52843U 22062P   22225.91667824 -.01131912  00000-0 -66282-1 0  9995,2 52843  53.2175 127.0023 0001641  42.1810 292.1716 15.14285977  1301,6901.284000000002,95.094,524.2819999999998,522.0169999999998,0.0
52843.0,STARLINK-4188,PAYLOAD,2022-08-14 14:00:01,15.12677643,0.0001551,53.2173,123.9936,42.2347,326.4505,-0.069128,-0.01128363,0.0,0 STARLINK-4188,1 52843U 22062P   22226.58334491 -.01128363  00000-0 -69128-1 0  9998,2 52843  53.2173 123.9936 0001551  42.2347 326.4505 15.12677643  9558,6906.175,95.195,529.111,526.969,0.0
52843.0,STARLINK-4188,PAYLOAD,2022-08-14 22:00:00,15.11877465,0.0001799,53.2174,122.4939,36.3303,348.071,-0.070962,-0.01132305,0.0,0 STARLINK-4188,1 52843U 22062P   22226.91667824 -.01132305  00000-0 -70962-1 0  9993,2 52843  53.2174 122.4939 0001799  36.3303 348.0710 15.11877465  1302,6908.611999999999,95.246,531.719,529.234,0.0
52843.0,STARLINK-4188,PAYLOAD,2022-08-15 14:00:01,15.10271764,0.0001652,53.2173,119.4958,42.5791,10.3656,-0.07441,-0.01135086,0.0,0 STARLINK-4188,1 52843U 22062P   22227.58334491 -.01135086  00000-0 -74410-1 0  9999,2 52843  53.2173 119.4958 0001652  42.5791  10.3656 15.10271764  1303,6913.5080000000025,95.347,536.515,534.23,0.0
52843.0,STARLINK-4188,PAYLOAD,2022-08-15 16:00:00,15.10095439,0.0002004,53.2175,119.1198,41.692,104.5327,-0.0761169999999999,-0.01153931,0.0,0 STARLINK-4188,1 52843U 22062P   22227.66667824 -.01153931  00000-0 -76117-1 0  9992,2 52843  53.2175 119.1198 0002004  41.6920 104.5327 15.10095439  9722,6914.045999999999,95.358,537.2959999999998,534.525,0.0
52843.0,STARLINK-4188,PAYLOAD,2022-08-15 22:00:00,15.09338426,0.0002073,53.2174,118.0004,38.4339,27.3504,-0.039217,-0.00590487,0.0,0 STARLINK-4188,1 52843U 22062P   22227.91667824 -.00590487  00000-0 -39217-1 0  9990,2 52843  53.2174 118.0004 0002073  38.4339  27.3504 15.09338426  1308,6916.357,95.406,539.656,536.789,0.0
52843.0,STARLINK-4188,PAYLOAD,2022-08-16 00:00:00,15.09167094,0.0002143,53.2173,117.6267,38.3531,120.48,-0.028819,-0.00435899,0.0,0 STARLINK-4188,1 52843U 22062P   22228.00001157 -.00435899  00000-0 -28819-1 0  9993,2 52843  53.2173 117.6267 0002143  38.3531 120.4800 15.09167094  9778,6916.880999999999,95.417,540.2280000000002,537.263,0.0
52843.0,STARLINK-4188,PAYLOAD,2022-08-16 06:00:02,15.08831836,0.0001665999999999,53.2171,116.5042,51.9268,25.8668,0.00050206,7.709999999999999e-05,0.0,0 STARLINK-4188,1 52843U 22062P   22228.25002315  .00007710  00000-0  50206-3 0  9999,2 52843  53.2171 116.5042 0001666  51.9268  25.8668 15.08831836  9807,6917.905,95.438,540.923,538.618,0.0
52843.0,STARLINK-4188,PAYLOAD,2022-08-16 14:00:01,15.08824484,0.0001747,53.2178,114.9964,52.9591,36.3801,0.0026504,0.00042128,0.0,0 STARLINK-4188,1 52843U 22062P   22228.58334491  .00042128  00000-0  26504-2 0  9993,2 52843  53.2178 114.9964 0001747  52.9591  36.3801 15.08824484  1303,6917.928000000001,95.439,541.001,538.5840000000002,0.0
52843.0,STARLINK-4188,PAYLOAD,2022-08-16 22:00:00,15.08854385,0.0001909,53.2179,113.5015,50.1226,50.8053,-0.0012792,-0.00020597,0.0,0 STARLINK-4188,1 52843U 22062P   22228.91667824 -.00020597  00000-0 -12792-2 0  9991,2 52843  53.2179 113.5015 0001909  50.1226  50.8053 15.08854385  1304,6917.8359999999975,95.437,541.0219999999998,538.381,0.0
52843.0,STARLINK-4188,PAYLOAD,2022-08-17 14:00:01,15.08804995,0.0001602,53.2181,110.5072,50.5041,73.6354,0.0002264,3.314e-05,0.0,0 STARLINK-4188,1 52843U 22062P   22229.58334491  .00003314  00000-0  22640-3 0  9996,2 52843  53.2181 110.5072 0001602  50.5041  73.6354 15.08804995 10013,6917.986999999999,95.44,540.961,538.744,0.0
52843.0,STARLINK-4188,PAYLOAD,2022-08-17 16:00:00,15.08804914,0.000162,53.2182,110.1333,51.94300000000001,165.0847,0.0004338,6.616e-05,0.0,0 STARLINK-4188,1 52843U 22062P   22229.66667824  .00006616  00000-0  43380-3 0  9996,2 52843  53.2182 110.1333 0001620  51.9430 165.0847 15.08804914  1303,6917.988,95.44,540.9730000000002,538.732,0.0
52843.0,STARLINK-4188,PAYLOAD,2022-08-18 08:00:01,15.08863779,0.0001733999999999,53.218,107.1414,48.5349,191.6205,-0.0013208,-0.00021261,0.0,0 STARLINK-4188,1 52843U 22062P   22230.33334491 -.00021261  00000-0 -13208-2 0  9993,2 52843  53.2180 107.1414 0001734  48.5349 191.6205 15.08863779 10121,6917.808000000001,95.436,540.872,538.4730000000002,0.0
52843.0,STARLINK-4188,PAYLOAD,2022-08-18 14:00:01,15.0884045,0.0001624,53.2181,106.0183,53.6099,105.2603,0.0031441999999999,0.00050109,0.0,0 STARLINK-4188,1 52843U 22062P   22230.58334491  .00050109  00000-0  31442-2 0  9991,2 52843  53.2181 106.0183 0001624  53.6099 105.2603 15.08840450  1304,6917.879,95.438,540.867,538.621,0.0
